#cP2022 11  2  0  0  0.00000000      96 ORBIT IGb14 HLM  IGS
## 2234 259200.00000000   900.00000000 59885 0.0000000000000
+   32   G01G02G03G04G05G06G07G08G09G10G11G12G13G14G15G16G17
+        G18G19G20G21G22G23G24G25G26G27G28G29G30G31G32  0  0
+          0  0  0  0  0  0  0  0  0  0  0  0  0  0  0  0  0
+          0  0  0  0  0  0  0  0  0  0  0  0  0  0  0  0  0
+          0  0  0  0  0  0  0  0  0  0  0  0  0  0  0  0  0
++         3  2  2  2  2  2  2  2  2  2  3  2  2  3  2  2  2
++         3  2  2  2  2  2  2  2  2  2  0  2  2  2  2  0  0
++         0  0  0  0  0  0  0  0  0  0  0  0  0  0  0  0  0
++         0  0  0  0  0  0  0  0  0  0  0  0  0  0  0  0  0
++         0  0  0  0  0  0  0  0  0  0  0  0  0  0  0  0  0
%c G  cc GPS ccc cccc cccc cccc cccc ccccc ccccc ccccc ccccc
%c cc cc ccc ccc cccc cccc cccc cccc ccccc ccccc ccccc ccccc
%f  1.2500000  1.025000000  0.00000000000  0.000000000000000
%f  0.0000000  0.000000000  0.00000000000  0.000000000000000
%i    0    0    0    0      0      0      0      0         0
%i    0    0    0    0      0      0      0      0         0
/* RAPID ORBIT COMBINATION FROM WEIGHTED AVERAGE OF:        
/* cod emr esa gfz jpl ngs sio usn whu                      
/* REFERENCED TO IGS TIME (IGST) AND TO WEIGHTED MEAN POLE: 
/* PCV:IGS14_2233 OL/AL:FES2004  NONE     Y  ORB:CMB CLK:CMB
*  2022 11  2  9 45  0.00000000
PG01  19152.898098  13950.980623 -12650.633477    257.963732  8  7  6 101       
PG02 -20199.028170 -12361.924754  12507.787113   -639.722827  6  6  6  87       
PG03  12055.233108  22091.453581   8536.448210   -370.057527  7  5  5 102       
PG04  10346.410304  11133.246496  21783.827022    -93.472789  3  5  8 101       
PG05  -5822.192698 -25608.599000   3327.241622   -102.742451  8  5  8  78       
PG06  17090.119116  -8167.920132  18713.647804    507.869247  5  4  6  98       
PG07  26064.926189   6201.777453   -973.052864    292.186958  6  3  4 104       
PG08   1142.375977  18277.103096 -19143.465541    -91.848778  4  6  4 120       
PG09  18600.625526   -177.890123  18895.722371   -274.639213  6  4  3 110       
PG10 -13181.617739   7356.239083 -21669.106123    -10.157412  1  5    115       
PG11   5181.416759 -14232.520145  21821.963464    -33.726931  7  8  8  97       
PG12 -10202.873211 -23176.769798   7918.733682   -299.446726  6  4  3 116       
PG13   8136.052750 -19854.786916 -15704.939034    417.242722  8  6  6 101       
PG14  14630.398456  -5037.823563 -21574.415884    -88.223789  7  6  5  99       
PG15  -3970.964232 -18370.028238 -19107.645843    -15.835397  6  4  3  84       
PG16  -1089.716759  24962.772167   8008.025661   -526.804556  6  3  7  80       
PG17  22018.447504 -11719.639714  -8782.834530    674.323409  5  5  5  67       
PG18 -25959.611226  -4861.556803  -3474.907812     -7.123996 11  7  9 104       
PG19  20022.904423 -17192.622799    971.585125    231.926972  5  7  5  89       
PG20   2339.701692 -21606.272830  15436.146234    473.415491  6  5  2  91       
PG21  12619.581950  14817.262110 -17795.750739    156.877589  9  9  5 119       
PG22 -17747.557281  19229.854259   4372.919825    356.954964  4     5  65       
PG23 -16153.508528  -4592.622872 -20617.290269     -1.156549  7  7  7 109       
PG24 -16282.522545 -14601.271072 -15685.852242     75.786570  6  7  7  88       
PG25 -15722.834080 -14226.224558  15868.905267    388.560761  7  7  3 113       
PG26  -6805.400362  18948.374845  17062.699456    234.521788  7  6  4 110       
PG27  -9834.968368  21544.482079 -11820.998111    186.680402  5  4  6 129       
PG28  -9657.089777  15574.386592  18768.061670 999999.999999
PG29 -17418.956198  -2557.937796  19870.078910   -564.248119  7  9  5  97       
PG30  23583.044924  -2728.327049 -12074.850253   -537.015349  7  7  5  93       
PG31 -16540.147870   9051.609478  18730.886419   -198.861931  7  5  5  93       
PG32 -20887.016236  14703.674049  -6741.596963   -282.891117  6  6  6  83       
*  2022 11  2 10  0  0.00000000
PG01  17655.611754  13698.565217 -14924.776307    257.958477  7  8  6  90       
PG02 -18718.163584 -12330.842998  14770.303920   -639.721131  6  6  6  87       
PG03  12115.725819  22944.143622   5815.383247   -370.060080  8  5  4 102       
PG04   8584.528580  12879.716738  21576.819380    -93.466860  3  5  7  98       
PG05  -5392.589522 -25165.247086   6125.769167   -102.744100  7  5  8  58       
PG06  19037.367687  -7610.898595  16989.806183    507.878102  5  4  6  87       
PG07  26006.260499   6440.228643   1833.930974    292.183064  6  3  4 101       
PG08   -366.184557  19756.621713 -17608.549716    -91.851169  4  6  5 126       
PG09  17195.616990   1580.835648  20112.854620   -274.634277  6  5  3 103       
PG10 -13962.511827   4956.605108 -21886.948303    -10.159078  1  6  2 114       
PG11   7562.039479 -13534.763701  21565.925659    -33.731717  8  7  7  92       
PG12 -10164.510210 -23985.841638   5188.217900   -299.450760  6  4  3 115       
PG13   9526.628080 -20765.375387 -13560.159703    417.248796  8  6  6 111       
PG14  15282.285847  -2652.445413 -21557.722526    -88.219656  7  6  5  90       
PG15  -2649.439665 -19936.177510 -17652.703117    -15.832644  5  4  3 103       
PG16  -1570.748219  23926.422862  10622.526656   -526.804560  6  2  7  94       
PG17  21278.329273 -10748.196251 -11341.585328    674.326573  6  5  5  73       
PG18 -26135.400748  -5120.018070   -615.919535     -7.136355 11  7  9  79       
PG19  20153.408483 -16997.906865  -1928.462592    231.931587  5  7  5  93       
PG20   3335.335605 -20019.440654  17264.301652    473.413045  6  5  2  93       
PG21  10416.695100  14614.421287 -19213.811615    156.876894  8  9  5 104       
PG22 -18140.725388  19234.952223   1531.294020    356.960990  5  2  5  92       
PG23 -16812.959802  -6782.680516 -19464.984223     -1.156467  7  7  7  96       
PG24 -14442.181820 -14523.313677 -17458.777193     75.772655  6  7  7  85       
PG25 -16073.616856 -15937.833761  13819.804938    388.564171  7  6  3 104       
PG26  -7724.287982  17076.731675  18600.665178    234.522891  6  5  3 103       
PG27 -10804.982602  22268.351181  -9282.731279    186.673481  5  2  6 124       
PG28 -10415.834544  13405.410447  20005.009233 999999.999999
PG29 -15756.206661  -4201.579699  20940.130290   -564.250902  8  8  5  99       
PG30  24739.337873  -2177.844805  -9672.964524   -537.014985  7  7  5 102       
PG31 -18514.055409   8420.510787  17165.103765   -198.862892  7  5  5  95       
PG32 -20442.302358  13827.783145  -9397.456332   -282.902158  6  6  6  93       
*  2022 11  2 10 15  0.00000000
PG01  15910.237265  13490.282672 -16950.900440    257.953232  7  8  6  87       
PG02 -17005.017577 -12356.931870  16786.616666   -639.719646  6  6  6  99       
PG03  12112.680882  23497.724120   2994.551106   -370.062576  8  4  4 107       
PG04   6944.908386  14683.117701  20998.309422    -93.461001  3  5  7  99       
PG05  -4816.504342 -24457.440494   8817.597338   -102.745329  7  4  8  62       
PG06  20804.546454  -7200.597467  14975.784968    507.887031  6  4  6  68       
PG07  25653.737142   6626.052631   4610.409867    292.179049  6  3  3 100       
PG08  -1680.276529  21162.657290 -15767.442189    -91.854663  4  6  5 115       
PG09  15808.501557   3502.468971  20981.885278   -274.629276  6  5  3  86       
PG10 -14871.808497   2602.705302 -21722.628968    -10.160999  3  5  2 115       
PG11   9927.636442 -12974.013311  20938.827485    -33.736501  8  6  6  72       
PG12 -10081.238661 -24492.869139   2368.399975   -299.454796  6  3  4 115       
PG13  10681.092481 -21575.057301 -11182.221990    417.255134  8  5  5 114       
PG14  16046.264346   -325.817499 -21169.994453    -88.215534  8  7  4  90       
PG15  -1494.832526 -21414.933753 -15900.735305    -15.829946  6  4  3  86       
PG16  -2183.299148  22636.645585  13047.130487   -526.804711  5  2  7  98       
PG17  20400.404718  -9528.078980 -13701.524665    674.329868  6  6  5  54       
PG18 -26006.702852  -5309.958085   2253.575701     -7.148729 11  7  8  90       
PG19  20058.538438 -16581.549680  -4794.869800    231.936096  6  7  6  79       
PG20   4504.417794 -18319.366721  18798.179597    473.410109  6  4  2  74       
PG21   8053.831568  14514.955167 -20291.013564    156.876238  8  9  6  94       
PG22 -18310.039751  19025.459505  -1336.873549    356.967498  5  2  5 101       
PG23 -17532.570773  -8794.955087 -17979.229611     -1.156382  8  6  7  99       
PG24 -12419.520893 -14521.187881 -18942.891683     75.758766  6  8  7  88       
PG25 -16423.691283 -17396.139841  11531.790409    388.567636  7  6  4 105       
PG26  -8793.278946  15109.796185  19812.926054    234.524005  6  5  3 101       
PG27 -11549.337123  22811.493334  -6582.451797    186.666539  5     6 118       
PG28 -11323.121644  11164.029300  20884.900042 999999.999999
PG29 -14115.936572  -6007.831743  21649.065782   -564.253194  8  8  4  87       
PG30  25645.436076  -1735.127359  -7106.300140   -537.014745  7  7  4 101       
PG31 -20324.294386   7930.121859  15305.702423   -198.864202  8  6  6  95       
PG32 -19858.778493  12701.408724 -11888.775344   -282.913255  6  6  6  89       
EOF
